CCSDS_OMM_VERS = 2.0
CREATION_DATE  = 
ORIGINATOR     = 

OBJECT_NAME    = STARLINK-36545
OBJECT_ID      = 2026-012N
CENTER_NAME    = EARTH
REF_FRAME      = TEME
TIME_SYSTEM    = UTC
MEAN_ELEMENT_THEORY = SGP/SGP4

EPOCH          = 2026-02-14T14:00:01.999008
MEAN_MOTION    = 15.45007329
ECCENTRICITY   = .0001226
INCLINATION    = 43.0009
RA_OF_ASC_NODE = 84.8960
ARG_OF_PERICENTER = 297.0535
MEAN_ANOMALY   = 218.8985

EPHEMERIS_TYPE = 0
CLASSIFICATION_TYPE = U
NORAD_CAT_ID   = 67505
ELEMENT_SET_NO = 999
REV_AT_EPOCH   = 535
BSTAR          = -.43262E-1
MEAN_MOTION_DOT = -.1876967E-1
MEAN_MOTION_DDOT = 0

CCSDS_OMM_VERS = 2.0
CREATION_DATE  = 
ORIGINATOR     = 

OBJECT_NAME    = STARLINK-36553
OBJECT_ID      = 2026-012P
CENTER_NAME    = EARTH
REF_FRAME      = TEME
TIME_SYSTEM    = UTC
MEAN_ELEMENT_THEORY = SGP/SGP4

EPOCH          = 2026-02-14T14:00:01.999008
MEAN_MOTION    = 15.43739594
ECCENTRICITY   = .0001219
INCLINATION    = 43.0002
RA_OF_ASC_NODE = 84.8126
ARG_OF_PERICENTER = 294.1350
MEAN_ANOMALY   = 256.1831

EPHEMERIS_TYPE = 0
CLASSIFICATION_TYPE = U
NORAD_CAT_ID   = 67506
ELEMENT_SET_NO = 999
REV_AT_EPOCH   = 535
BSTAR          = -.4226E-1
MEAN_MOTION_DOT = -.1766908E-1
MEAN_MOTION_DDOT = 0

CCSDS_OMM_VERS = 2.0
CREATION_DATE  = 
ORIGINATOR     = 

OBJECT_NAME    = STARLINK-36521
OBJECT_ID      = 2026-012Q
CENTER_NAME    = EARTH
REF_FRAME      = TEME
TIME_SYSTEM    = UTC
MEAN_ELEMENT_THEORY = SGP/SGP4

EPOCH          = 2026-02-14T14:00:01.999008
MEAN_MOTION    = 15.44271268
ECCENTRICITY   = .0001063
INCLINATION    = 43.0004
RA_OF_ASC_NODE = 84.7932
ARG_OF_PERICENTER = 298.7511
MEAN_ANOMALY   = 258.5019

EPHEMERIS_TYPE = 0
CLASSIFICATION_TYPE = U
NORAD_CAT_ID   = 67507
ELEMENT_SET_NO = 999
REV_AT_EPOCH   = 535
BSTAR          = -.44304E-1
MEAN_MOTION_DOT = -.187433E-1
MEAN_MOTION_DDOT = 0

CCSDS_OMM_VERS = 2.0
CREATION_DATE  = 
ORIGINATOR     = 

OBJECT_NAME    = STARLINK-36526
OBJECT_ID      = 2026-012R
CENTER_NAME    = EARTH
REF_FRAME      = TEME
TIME_SYSTEM    = UTC
MEAN_ELEMENT_THEORY = SGP/SGP4

EPOCH          = 2026-02-14T14:00:01.999008
MEAN_MOTION    = 15.45039205
ECCENTRICITY   = .0000956
INCLINATION    = 43.0004
RA_OF_ASC_NODE = 84.7706
ARG_OF_PERICENTER = 292.4222
MEAN_ANOMALY   = 273.9152

EPHEMERIS_TYPE = 0
CLASSIFICATION_TYPE = U
NORAD_CAT_ID   = 67508
ELEMENT_SET_NO = 999
REV_AT_EPOCH   = 535
BSTAR          = -.43461E-1
MEAN_MOTION_DOT = -.1886453E-1
MEAN_MOTION_DDOT = 0

CCSDS_OMM_VERS = 2.0
CREATION_DATE  = 
ORIGINATOR     = 

OBJECT_NAME    = STARLINK-36541
OBJECT_ID      = 2026-012S
CENTER_NAME    = EARTH
REF_FRAME      = TEME
TIME_SYSTEM    = UTC
MEAN_ELEMENT_THEORY = SGP/SGP4

EPOCH          = 2026-02-14T10:17:36.591072
MEAN_MOTION    = 15.50639519
ECCENTRICITY   = .0000544
INCLINATION    = 42.9986
RA_OF_ASC_NODE = 86.7186
ARG_OF_PERICENTER = 353.0224
MEAN_ANOMALY   = 7.0629

EPHEMERIS_TYPE = 0
CLASSIFICATION_TYPE = U
NORAD_CAT_ID   = 67509
ELEMENT_SET_NO = 999
REV_AT_EPOCH   = 419
BSTAR          = .12184E-2
MEAN_MOTION_DOT = .7195E-3
MEAN_MOTION_DDOT = 0

CCSDS_OMM_VERS = 2.0
CREATION_DATE  = 
ORIGINATOR     = 

OBJECT_NAME    = STARLINK-36549
OBJECT_ID      = 2026-012T
CENTER_NAME    = EARTH
REF_FRAME      = TEME
TIME_SYSTEM    = UTC
MEAN_ELEMENT_THEORY = SGP/SGP4

EPOCH          = 2026-02-14T14:00:01.999008
MEAN_MOTION    = 15.42429500
ECCENTRICITY   = .0001091
INCLINATION    = 43.0000
RA_OF_ASC_NODE = 84.6819
ARG_OF_PERICENTER = 278.1221
MEAN_ANOMALY   = 320.8942

EPHEMERIS_TYPE = 0
CLASSIFICATION_TYPE = U
NORAD_CAT_ID   = 67510
ELEMENT_SET_NO = 999
REV_AT_EPOCH   = 530
BSTAR          = -.45215E-1
MEAN_MOTION_DOT = -.180401E-1
MEAN_MOTION_DDOT = 0

CCSDS_OMM_VERS = 2.0
CREATION_DATE  = 
ORIGINATOR     = 

OBJECT_NAME    = STARLINK-36540
OBJECT_ID      = 2026-012U
CENTER_NAME    = EARTH
REF_FRAME      = TEME
TIME_SYSTEM    = UTC
MEAN_ELEMENT_THEORY = SGP/SGP4

EPOCH          = 2026-02-14T11:47:58.668000
MEAN_MOTION    = 15.50592337
ECCENTRICITY   = .0003377
INCLINATION    = 43.0023
RA_OF_ASC_NODE = 86.3251
ARG_OF_PERICENTER = 283.9420
MEAN_ANOMALY   = 76.1065

EPHEMERIS_TYPE = 0
CLASSIFICATION_TYPE = U
NORAD_CAT_ID   = 67511
ELEMENT_SET_NO = 999
REV_AT_EPOCH   = 420
BSTAR          = .16087E-2
MEAN_MOTION_DOT = .95249E-3
MEAN_MOTION_DDOT = 0

CCSDS_OMM_VERS = 2.0
CREATION_DATE  = 
ORIGINATOR     = 

OBJECT_NAME    = STARLINK-36538
OBJECT_ID      = 2026-012V
CENTER_NAME    = EARTH
REF_FRAME      = TEME
TIME_SYSTEM    = UTC
MEAN_ELEMENT_THEORY = SGP/SGP4

EPOCH          = 2026-02-14T14:00:01.999008
MEAN_MOTION    = 15.36360025
ECCENTRICITY   = .0001213
INCLINATION    = 42.9994
RA_OF_ASC_NODE = 85.2074
ARG_OF_PERICENTER = 304.8963
MEAN_ANOMALY   = 83.2842

EPHEMERIS_TYPE = 0
CLASSIFICATION_TYPE = U
NORAD_CAT_ID   = 67512
ELEMENT_SET_NO = 999
REV_AT_EPOCH   = 535
BSTAR          = -.658E-1
MEAN_MOTION_DOT = -.2144017E-1
MEAN_MOTION_DDOT = 0

CCSDS_OMM_VERS = 2.0
CREATION_DATE  = 
ORIGINATOR     = 

OBJECT_NAME    = STARLINK-36531
OBJECT_ID      = 2026-012W
CENTER_NAME    = EARTH
REF_FRAME      = TEME
TIME_SYSTEM    = UTC
MEAN_ELEMENT_THEORY = SGP/SGP4

EPOCH          = 2026-02-14T14:00:01.999008
MEAN_MOTION    = 15.37786762
ECCENTRICITY   = .0001361
INCLINATION    = 43.0003
RA_OF_ASC_NODE = 85.0959
ARG_OF_PERICENTER = 297.9185
MEAN_ANOMALY   = 135.3052

EPHEMERIS_TYPE = 0
CLASSIFICATION_TYPE = U
NORAD_CAT_ID   = 67513
ELEMENT_SET_NO = 999
REV_AT_EPOCH   = 530
BSTAR          = -.62008E-1
MEAN_MOTION_DOT = -.2119619E-1
MEAN_MOTION_DDOT = 0

CCSDS_OMM_VERS = 2.0
CREATION_DATE  = 
ORIGINATOR     = 

OBJECT_NAME    = STARLINK-36530
OBJECT_ID      = 2026-012X
CENTER_NAME    = EARTH
REF_FRAME      = TEME
TIME_SYSTEM    = UTC
MEAN_ELEMENT_THEORY = SGP/SGP4

EPOCH          = 2026-02-14T14:00:01.999008
MEAN_MOTION    = 15.38760481
ECCENTRICITY   = .0001508
INCLINATION    = 43.0005
RA_OF_ASC_NODE = 85.1168
ARG_OF_PERICENTER = 284.4264
MEAN_ANOMALY   = 140.8977

EPHEMERIS_TYPE = 0
CLASSIFICATION_TYPE = U
NORAD_CAT_ID   = 67514
ELEMENT_SET_NO = 999
REV_AT_EPOCH   = 530
BSTAR          = -.51004E-1
MEAN_MOTION_DOT = -.1800504E-1
MEAN_MOTION_DDOT = 0

CCSDS_OMM_VERS = 2.0
CREATION_DATE  = 
ORIGINATOR     = 

OBJECT_NAME    = STARLINK-36543
OBJECT_ID      = 2026-012Y
CENTER_NAME    = EARTH
REF_FRAME      = TEME
TIME_SYSTEM    = UTC
MEAN_ELEMENT_THEORY = SGP/SGP4

EPOCH          = 2026-02-14T14:00:01.999008
MEAN_MOTION    = 15.39956055
ECCENTRICITY   = .000163
INCLINATION    = 43.0004
RA_OF_ASC_NODE = 85.1436
ARG_OF_PERICENTER = 277.5241
MEAN_ANOMALY   = 137.4753

EPHEMERIS_TYPE = 0
CLASSIFICATION_TYPE = U
NORAD_CAT_ID   = 67515
ELEMENT_SET_NO = 999
REV_AT_EPOCH   = 530
BSTAR          = -.49932E-1
MEAN_MOTION_DOT = -.1830717E-1
MEAN_MOTION_DDOT = 0

CCSDS_OMM_VERS = 2.0
CREATION_DATE  = 
ORIGINATOR     = 

OBJECT_NAME    = STARLINK-36537
OBJECT_ID      = 2026-012Z
CENTER_NAME    = EARTH
REF_FRAME      = TEME
TIME_SYSTEM    = UTC
MEAN_ELEMENT_THEORY = SGP/SGP4

EPOCH          = 2026-02-14T14:00:01.999008
MEAN_MOTION    = 15.40002742
ECCENTRICITY   = .000163
INCLINATION    = 43.0006
RA_OF_ASC_NODE = 84.9706
ARG_OF_PERICENTER = 294.7634
MEAN_ANOMALY   = 189.1342

EPHEMERIS_TYPE = 0
CLASSIFICATION_TYPE = U
NORAD_CAT_ID   = 67516
ELEMENT_SET_NO = 999
REV_AT_EPOCH   = 530
BSTAR          = -.46496E-1
MEAN_MOTION_DOT = -.1718857E-1
MEAN_MOTION_DDOT = 0

