STARLINK-36545          
1 67505U 26012N   26045.58335647 -.01876967  00000+0 -43262-1 0  9995
2 67505  43.0009  84.8960 0001226 297.0535 218.8985 15.45007329  5358
STARLINK-36553          
1 67506U 26012P   26045.58335647 -.01766908  00000+0 -42260-1 0  9996
2 67506  43.0002  84.8126 0001219 294.1350 256.1831 15.43739594  5350
STARLINK-36521          
1 67507U 26012Q   26045.58335647 -.01874330  00000+0 -44304-1 0  9997
2 67507  43.0004  84.7932 0001063 298.7511 258.5019 15.44271268  5357
STARLINK-36526          
1 67508U 26012R   26045.58335647 -.01886453  00000+0 -43461-1 0  9990
2 67508  43.0004  84.7706 0000956 292.4222 273.9152 15.45039205  5350
STARLINK-36541          
1 67509U 26012S   26045.42889573  .00071950  00000+0  12184-2 0  9990
2 67509  42.9986  86.7186 0000544 353.0224   7.0629 15.50639519  4197
STARLINK-36549          
1 67510U 26012T   26045.58335647 -.01804010  00000+0 -45215-1 0  9991
2 67510  43.0000  84.6819 0001091 278.1221 320.8942 15.42429500  5306
STARLINK-36540          
1 67511U 26012U   26045.49165125  .00095249  00000+0  16087-2 0  9993
2 67511  43.0023  86.3251 0003377 283.9420  76.1065 15.50592337  4208
STARLINK-36538          
1 67512U 26012V   26045.58335647 -.02144017  00000+0 -65800-1 0  9990
2 67512  42.9994  85.2074 0001213 304.8963  83.2842 15.36360025  5357
STARLINK-36531          
1 67513U 26012W   26045.58335647 -.02119619  00000+0 -62008-1 0  9998
2 67513  43.0003  85.0959 0001361 297.9185 135.3052 15.37786762  5301
STARLINK-36530          
1 67514U 26012X   26045.58335647 -.01800504  00000+0 -51004-1 0  9992
2 67514  43.0005  85.1168 0001508 284.4264 140.8977 15.38760481  5307
STARLINK-36543          
1 67515U 26012Y   26045.58335647 -.01830717  00000+0 -49932-1 0  9999
2 67515  43.0004  85.1436 0001630 277.5241 137.4753 15.39956055  5308
STARLINK-36537          
1 67516U 26012Z   26045.58335647 -.01718857  00000+0 -46496-1 0  9992
2 67516  43.0006  84.9706 0001630 294.7634 189.1342 15.40002742  5300
